EUTELSAT 8 WEST B       
1 40875U 15039B   25333.21974520 -.00000045  00000+0  00000+0 0  9996
2 40875   0.0690  11.7133 0004181 240.3233 247.4469  1.00271709 37652
EUTELSAT 9B             
1 41310U 16005A   25333.22303854  .00000082  00000+0  00000+0 0  9992
2 41310   0.0543  72.7071 0004611 189.0354 255.9230  1.00270408 36118
EUTELSAT 65 WEST A      
1 41382U 16014A   25333.27971889 -.00000256  00000+0  00000+0 0  9999
2 41382   0.0656  34.9047 0002534 217.0126 212.0101  1.00272906 35537
EUTELSAT 117 WEST B     
1 41589U 16038B   25332.98407818  .00000009  00000+0  00000+0 0  9992
2 41589   0.0111 146.1804 0000251 123.8988  35.3341  1.00271816 34656
EUTELSAT 172B           
1 42741U 17029B   25333.16641875  .00000015  00000+0  00000+0 0  9995
2 42741   0.0285 167.5198 0000053 277.4308 215.2812  1.00270534 31727
EUTELSAT 7C             
1 44334U 19034B   25332.65203898  .00000069  00000+0  00000+0 0  9994
2 44334   0.0777 186.9483 0003089  43.1815  79.4351  1.00269308  4824
EUTELSAT 5 WEST B       
1 44624U 19067A   25333.22035186 -.00000021  00000+0  00000+0 0  9998
2 44624   0.0635 344.9577 0003375 262.7448 255.0046  1.00271231 22436
EUTELSAT KONNECT        
1 45027U 20005B   25333.22269187  .00000070  00000+0  00000+0 0  9993
2 45027   0.0649  99.5408 0001550 190.6715 225.5311  1.00268920 22320
